STARLINK-36251
1 68093U 26042AA  26090.48822791  .00180515  00000+0  90315-3 0  9998
2 68093  53.1569  85.3098 0002767  45.4029 314.7219 15.80773442  5526
